{
  "type": "FeatureCollection",
  "features": [
    {
      "type": "Feature",
      "properties": {
        "norad_id": 66807,
        "name": "STARLINK-36000",
        "group": "last-30-days",
        "lat": -42.91150012475855,
        "lon": 137.12255852523384,
        "alt_km": 346.81436130194834,
        "timestamp": "2025-12-17T10:52:53.100696+00:00",
        "meta_object_name": "STARLINK-36000",
        "meta_object_id": "2025-278S",
        "meta_epoch": "2025-12-16T22:00:03.000096",
        "meta_mean_motion": 15.75001468,
        "meta_eccentricity": 0.00014745,
        "meta_inclination": 42.9986,
        "meta_ra_of_asc_node": 226.4801,
        "meta_arg_of_pericenter": 260.0836,
        "meta_mean_anomaly": 205.9437,
        "meta_ephemeris_type": 0,
        "meta_classification_type": "U",
        "meta_norad_cat_id": 66807,
        "meta_element_set_no": 999,
        "meta_rev_at_epoch": 368,
        "meta_bstar": 0.000406348,
        "meta_mean_motion_dot": 0.000623,
        "meta_mean_motion_ddot": 0,
        "tle_line1": "1 66807U 25278S   25350.91670139  .00062300  00000+0  40635-3 0  9993",
        "tle_line2": "2 66807  42.9986 226.4801 0001474 260.0836 205.9437 15.75001468  3685"
      },
      "geometry": {
        "type": "Point",
        "coordinates": [
          137.12255852523384,
          -42.91150012475855
        ]
      }
    },
    {
      "type": "Feature",
      "properties": {
        "norad_id": 66808,
        "name": "STARLINK-36071",
        "group": "last-30-days",
        "lat": -42.793067690915045,
        "lon": 139.72745431163085,
        "alt_km": 346.8217767768365,
        "timestamp": "2025-12-17T10:52:53.100706+00:00",
        "meta_object_name": "STARLINK-36071",
        "meta_object_id": "2025-278T",
        "meta_epoch": "2025-12-16T22:00:03.000096",
        "meta_mean_motion": 15.75046481,
        "meta_eccentricity": 0.00016469,
        "meta_inclination": 42.9987,
        "meta_ra_of_asc_node": 226.4753,
        "meta_arg_of_pericenter": 260.382,
        "meta_mean_anomaly": 207.5661,
        "meta_ephemeris_type": 0,
        "meta_classification_type": "U",
        "meta_norad_cat_id": 66808,
        "meta_element_set_no": 999,
        "meta_rev_at_epoch": 363,
        "meta_bstar": -0.00015232025,
        "meta_mean_motion_dot": -0.00023817,
        "meta_mean_motion_ddot": 0,
        "tle_line1": "1 66808U 25278T   25350.91670139 -.00023817  00000+0 -15232-3 0  9991",
        "tle_line2": "2 66808  42.9987 226.4753 0001646 260.3820 207.5661 15.75046481  3636"
      },
      "geometry": {
        "type": "Point",
        "coordinates": [
          139.72745431163085,
          -42.793067690915045
        ]
      }
    },
    {
      "type": "Feature",
      "properties": {
        "norad_id": 66809,
        "name": "STARLINK-35979",
        "group": "last-30-days",
        "lat": -42.088269792740945,
        "lon": 147.43261471328165,
        "alt_km": 346.5624445147332,
        "timestamp": "2025-12-17T10:52:53.100716+00:00",
        "meta_object_name": "STARLINK-35979",
        "meta_object_id": "2025-278U",
        "meta_epoch": "2025-12-16T22:00:03.000096",
        "meta_mean_motion": 15.75018572,
        "meta_eccentricity": 0.00019044,
        "meta_inclination": 42.9984,
        "meta_ra_of_asc_node": 226.4609,
        "meta_arg_of_pericenter": 270.7152,
        "meta_mean_anomaly": 202.9906,
        "meta_ephemeris_type": 0,
        "meta_classification_type": "U",
        "meta_norad_cat_id": 66809,
        "meta_element_set_no": 999,
        "meta_rev_at_epoch": 363,
        "meta_bstar": 0.00012996809,
        "meta_mean_motion_dot": 0.00019515,
        "meta_mean_motion_ddot": 0,
        "tle_line1": "1 66809U 25278U   25350.91670139  .00019515  00000+0  12997-3 0  9995",
        "tle_line2": "2 66809  42.9984 226.4609 0001904 270.7152 202.9906 15.75018572  3635"
      },
      "geometry": {
        "type": "Point",
        "coordinates": [
          147.43261471328165,
          -42.088269792740945
        ]
      }
    },
    {
      "type": "Feature",
      "properties": {
        "norad_id": 66810,
        "name": "STARLINK-36046",
        "group": "last-30-days",
        "lat": -42.615386371021955,
        "lon": 142.3208897805278,
        "alt_km": 346.6555996796369,
        "timestamp": "2025-12-17T10:52:53.100726+00:00",
        "meta_object_name": "STARLINK-36046",
        "meta_object_id": "2025-278V",
        "meta_epoch": "2025-12-16T22:00:03.000096",
        "meta_mean_motion": 15.75023685,
        "meta_eccentricity": 0.00017714,
        "meta_inclination": 42.9986,
        "meta_ra_of_asc_node": 226.4708,
        "meta_arg_of_pericenter": 269.5749,
        "meta_mean_anomaly": 200.296,
        "meta_ephemeris_type": 0,
        "meta_classification_type": "U",
        "meta_norad_cat_id": 66810,
        "meta_element_set_no": 999,
        "meta_rev_at_epoch": 340,
        "meta_bstar": 0.00012423692,
        "meta_mean_motion_dot": 0.00018636,
        "meta_mean_motion_ddot": 0,
        "tle_line1": "1 66810U 25278V   25350.91670139  .00018636  00000+0  12424-3 0  9995",
        "tle_line2": "2 66810  42.9986 226.4708 0001771 269.5749 200.2960 15.75023685  3406"
      },
      "geometry": {
        "type": "Point",
        "coordinates": [
          142.3208897805278,
          -42.615386371021955
        ]
      }
    },
    {
      "type": "Feature",
      "properties": {
        "norad_id": 66811,
        "name": "STARLINK-36045",
        "group": "last-30-days",
        "lat": -42.3805840779368,
        "lon": 144.88282104817512,
        "alt_km": 346.8842502570251,
        "timestamp": "2025-12-17T10:52:53.100736+00:00",
        "meta_object_name": "STARLINK-36045",
        "meta_object_id": "2025-278W",
        "meta_epoch": "2025-12-16T22:00:03.000096",
        "meta_mean_motion": 15.75026047,
        "meta_eccentricity": 0.00014448,
        "meta_inclination": 42.9983,
        "meta_ra_of_asc_node": 226.4656,
        "meta_arg_of_pericenter": 277.8915,
        "meta_mean_anomaly": 193.8963,
        "meta_ephemeris_type": 0,
        "meta_classification_type": "U",
        "meta_norad_cat_id": 66811,
        "meta_element_set_no": 999,
        "meta_rev_at_epoch": 363,
        "meta_bstar": 6.6444891e-05,
        "meta_mean_motion_dot": 9.735e-05,
        "meta_mean_motion_ddot": 0,
        "tle_line1": "1 66811U 25278W   25350.91670139  .00009735  00000+0  66445-4 0  9999",
        "tle_line2": "2 66811  42.9983 226.4656 0001444 277.8915 193.8963 15.75026047  3630"
      },
      "geometry": {
        "type": "Point",
        "coordinates": [
          144.88282104817512,
          -42.3805840779368
        ]
      }
    },
    {
      "type": "Feature",
      "properties": {
        "norad_id": 66812,
        "name": "STARLINK-36054",
        "group": "last-30-days",
        "lat": -41.73790717119202,
        "lon": 149.96858082402886,
        "alt_km": 346.5369184822139,
        "timestamp": "2025-12-17T10:52:53.100748+00:00",
        "meta_object_name": "STARLINK-36054",
        "meta_object_id": "2025-278X",
        "meta_epoch": "2025-12-16T22:00:03.000096",
        "meta_mean_motion": 15.75026586,
        "meta_eccentricity": 0.00019584,
        "meta_inclination": 42.9984,
        "meta_ra_of_asc_node": 226.4557,
        "meta_arg_of_pericenter": 266.7564,
        "meta_mean_anomaly": 208.8672,
        "meta_ephemeris_type": 0,
        "meta_classification_type": "U",
        "meta_norad_cat_id": 66812,
        "meta_element_set_no": 999,
        "meta_rev_at_epoch": 363,
        "meta_bstar": 7.0583838e-05,
        "meta_mean_motion_dot": 0.00010372,
        "meta_mean_motion_ddot": 0,
        "tle_line1": "1 66812U 25278X   25350.91670139  .00010372  00000+0  70584-4 0  9998",
        "tle_line2": "2 66812  42.9984 226.4557 0001958 266.7564 208.8672 15.75026586  3631"
      },
      "geometry": {
        "type": "Point",
        "coordinates": [
          149.96858082402886,
          -41.73790717119202
        ]
      }
    },
    {
      "type": "Feature",
      "properties": {
        "norad_id": 66813,
        "name": "STARLINK-36042",
        "group": "last-30-days",
        "lat": -41.335079192581034,
        "lon": 152.45925945098097,
        "alt_km": 346.55649668852493,
        "timestamp": "2025-12-17T10:52:53.100761+00:00",
        "meta_object_name": "STARLINK-36042",
        "meta_object_id": "2025-278Y",
        "meta_epoch": "2025-12-16T22:00:03.000096",
        "meta_mean_motion": 15.75022166,
        "meta_eccentricity": 0.00018444,
        "meta_inclination": 42.9986,
        "meta_ra_of_asc_node": 226.4504,
        "meta_arg_of_pericenter": 277.1176,
        "meta_mean_anomaly": 200.4225,
        "meta_ephemeris_type": 0,
        "meta_classification_type": "U",
        "meta_norad_cat_id": 66813,
        "meta_element_set_no": 999,
        "meta_rev_at_epoch": 363,
        "meta_bstar": 0.00013108298,
        "meta_mean_motion_dot": 0.0001969,
        "meta_mean_motion_ddot": 0,
        "tle_line1": "1 66813U 25278Y   25350.91670139  .00019690  00000+0  13108-3 0  9999",
        "tle_line2": "2 66813  42.9986 226.4504 0001844 277.1176 200.4225 15.75022166  3637"
      },
      "geometry": {
        "type": "Point",
        "coordinates": [
          152.45925945098097,
          -41.335079192581034
        ]
      }
    }
  ]
}